satname,norad_id,inclination_deg,eccentricity,mean_motion_rev_per_day,perigee_km,apogee_km,l1,l2
STARLINK-1008,44714,53.1537,0.0002235,15.46766489,424.67176664805083,427.7133019498824,1 44714U 19074B   26136.93667428  .00013149  00000+0  26645-3 0  9997,2 44714  53.1537 217.9093 0002235  26.1722 333.9399 15.46766489359371
STARLINK-1012,44718,53.1582,0.0001968,15.46972417,424.24970069166557,426.92764711691507,1 44718U 19074F   26136.93796966  .00013537  00000+0  27212-3 0  9993,2 44718  53.1582 218.2155 0001968  20.0741 340.0344 15.46972417359362
STARLINK-1017,44723,53.0478,0.0004518,15.29763781,473.42091715780043,479.61478328045814,1 44723U 19074L   26136.93356649  .00016423  00000+0  57286-3 0  9990,2 44723  53.0478 215.1469 0004518 325.2378  34.8325 15.29763781359398
STARLINK-1020,44725,53.1602,0.0002459,15.51372164,411.0489747031743,414.3887176083135,1 44725U 19074N   26136.70856743  .00044315  00000+0  74401-3 0  9996,2 44725  53.1602 244.1544 0002459   3.6055 356.4972 15.51372164358966
STARLINK-1036,44741,53.0426,0.0002321,15.66922958,366.148304865721,369.2797289077598,1 44741U 19074AE  26136.92739410  .00041583  00000+0  38799-3 0  9993,2 44741  53.0426 214.9099 0002321 288.0202  72.0560 15.66922958359398
STARLINK-1039,44744,53.0622,0.0001988,15.27084218,483.16974832956566,485.89834633798546,1 44744U 19074AH  26136.72782554  .00022914  00000+0  86137-3 0  9997,2 44744  53.0622 261.0405 0001988 348.9539  11.1415 15.27084218358735
STARLINK-1042,44747,53.0406,0.0003306,15.53026721,405.65131848386864,410.1382426971959,1 44747U 19074AL  26136.35180707  .00021289  00000+0  34164-3 0  9998,2 44747  53.0406 129.2903 0003306  38.7549 321.3697 15.53026721360574
STARLINK-1043,44748,53.0495,0.0002273,15.58355448,390.87731527225515,393.95520878517254,1 44748U 19074AM  26136.67752450  .00031539  00000+0  41270-3 0  9999,2 44748  53.0495 225.3130 0002273 324.3449  35.7410 15.58355448359234
STARLINK-1046,44751,53.0486,0.0005606,15.52335182,406.10462655603624,413.715384858835,1 44751U 19074AQ  26136.72917931  .00044831  00000+0  72671-3 0  9994,2 44751  53.0486 245.4129 0005606 358.0144   2.0842 15.52335182358959
STARLINK-1047,44752,53.0682,0.0003564,15.3398029,461.51247103945025,466.3895113595772,1 44752U 19074AR  26136.87001706  .00006460  00000+0  20482-3 0  9994,2 44752  53.0682 187.1233 0003564  73.8525 286.2868 15.33980290359806
STARLINK-1048,44753,53.0448,0.0006205,15.65078979,368.8225388086912,377.200714254217,1 44753U 19074AS  26136.89499388  .00037325  00000+0  37540-3 0  9991,2 44753  53.0448 196.7776 0006205 347.4000  12.6859 15.65078979359648
STARLINK-1063,44768,53.1572,7.28e-05,15.46709421,425.86453604353665,426.8552707926747,1 44768U 19074BH  26136.94896863  .00018130  00000+0  36461-3 0  9996,2 44768  53.1572 258.8627 0000728  40.3654 319.7408 15.46709421358817
STARLINK-1067,44771,53.0435,0.000586,15.71436488,350.8452308870319,358.7362221825306,1 44771U 19074BL  26136.66802335  .00061610  00000+0  47383-3 0  9996,2 44771  53.0435 230.8468 0005860 305.3840  54.6629 15.71436488359150
STARLINK-1068,44772,53.0438,0.0002073,15.72251653,351.06805881777836,353.85856570724354,1 44772U 19074BM  26136.68319958  .00057754  00000+0  42997-3 0  9993,2 44772  53.0438 204.5452 0002073  58.0670 302.0549 15.72251653359512
STARLINK-1114,44927,53.0433,0.0001105,15.61945514,381.290730005504,382.78472862068156,1 44927U 20001P   26136.94212789  .00058614  00000+0  66178-3 0  9993,2 44927  53.0433 358.7081 0001105  59.9144 300.1978 15.61945514350723
STARLINK-1123,44930,53.1467,0.0002464,15.54596954,401.65353535745817,404.99543957848255,1 44930U 20001S   26136.93943369  .00047119  00000+0  70360-3 0  9997,2 44930  53.1467  24.2575 0002464 181.1337 178.9669 15.54596954350370
STARLINK-1094,44941,53.1548,0.0001733,15.51311508,411.718973166433,414.0727451554185,1 44941U 20001AD  26136.91561082  .00029436  00000+0  49881-3 0  9991,2 44941  53.1548 358.8443 0001733 218.5186 141.5700 15.51311508350736
STARLINK-1122,44949,53.1582,0.000146,15.51066381,412.61973797573955,414.6029284890428,1 44949U 20001AM  26136.34235545  .00066551  00000+0  11226-2 0  9998,2 44949  53.1582   2.1455 0001460 208.0518 152.0413 15.51066381350637
STARLINK-1080,44961,53.0469,0.0002138,15.58385959,390.8803644219279,393.7754152088128,1 44961U 20001AZ  26136.89449394  .00067035  00000+0  86503-3 0  9990,2 44961  53.0469 319.4042 0002138 296.7050  63.3743 15.58385959351271
STARLINK-1090,44968,53.1511,0.0001028,15.47633212,422.95264833066994,424.3510961228003,1 44968U 20001BG  26136.92273171  .00038241  00000+0  73387-3 0  9992,2 44968  53.1511 346.5351 0001028 181.3558 178.7447 15.47633212350907
STARLINK-1132,45044,53.1523,2.61e-05,15.52514404,409.2104339325206,409.5647427160311,1 45044U 20006A   26136.71106337  .00067017  00000+0  10733-2 0  9997,2 45044  53.1523 289.3740 0000261 137.5464 222.5567 15.52514404347464
STARLINK-1131,45047,53.1588,6.89e-05,15.49402198,418.0054337908696,418.94200674812237,1 45047U 20006D   26136.80924175  .00039422  00000+0  71095-3 0  9996,2 45047  53.1588 321.2245 0000689 228.6907 131.4043 15.49402198347023
STARLINK-1134,45048,53.0276,0.0005604,15.53250153,403.4414658694086,411.0465208867863,1 45048U 20006E   26136.40790380  .00109250  00000+0  16892-2 0  9992,2 45048  53.0276 274.0940 0005604   7.2025 352.9064 15.53250153347635
STARLINK-1156,45054,53.1593,0.0001575,15.33064194,465.598361623056,467.75447785027336,1 45054U 20006L   26136.77923163  .00033230  00000+0  10328-2 0  9998,2 45054  53.1593 324.3292 0001575 260.4353  99.6471 15.33064194346973
STARLINK-1166,45060,53.0471,0.0001357,15.55825042,398.83563399624745,400.6751539919778,1 45060U 20006S   26136.95570665  .00058552  00000+0  83293-3 0  9996,2 45060  53.0471 304.7319 0001357 266.0716  94.0140 15.55825042347254
STARLINK-1169,45061,53.1575,0.0003148,15.36114087,455.4614561988992,459.7652446195161,1 45061U 20006T   26136.92353162  .00026720  00000+0  75670-3 0  9997,2 45061  53.1575 322.7341 0003148 207.0024 153.0816 15.36114087347012
STARLINK-1171,45062,53.0414,0.000169,15.71455298,353.5991428723719,355.8748542838921,1 45062U 20006U   26136.86361307  .00059525  00000+0  45805-3 0  9997,2 45062  53.0414 273.5408 0001690 224.0149 136.0733 15.71455298347681
STARLINK-1133,45064,53.1574,0.0001887,15.33162698,465.0916745236318,467.6747964605074,1 45064U 20006W   26136.88064057  .00030729  00000+0  95333-3 0  9999,2 45064  53.1574 300.6363 0001887 283.2462  76.8329 15.33162698347326
STARLINK-1167,45071,53.1572,0.0002165,15.35319455,458.4913395494623,461.45224065557613,1 45071U 20006AD  26136.91602857  .00024652  00000+0  71713-3 0  9991,2 45071  53.1572 299.8947 0002165 206.2747 153.8146 15.35319455347331
STARLINK-1168,45072,53.158,0.0001898,15.33210457,464.9420354259728,467.5401613521208,1 45072U 20006AE  26136.92724680  .00029287  00000+0  90794-3 0  9991,2 45072  53.1580 300.6326 0001898 279.6932  80.3856 15.33210457347326
STARLINK-1172,45074,53.1585,0.0002088,15.36346179,455.497732270539,458.3520541171374,1 45074U 20006AG  26136.88808011  .00031442  00000+0  88144-3 0  9991,2 45074  53.1585 299.5276 0002088 206.8689 153.2206 15.36346179347330
STARLINK-1153,45080,53.1592,0.000326,15.35410307,457.47290605503076,461.93117711014384,1 45080U 20006AN  26136.76961521  .00040537  00000+0  11663-2 0  9997,2 45080  53.1592 300.4976 0003260 228.3160 131.7565 15.35410307347311
STARLINK-1151,45081,53.0508,0.0002366,15.74498584,344.46745289793944,347.64934216004986,1 45081U 20006AP  26136.75132487  .00071761  00000+0  48351-3 0  9996,2 45081  53.0508 263.3164 0002366 259.6618 100.4134 15.74498584347811
STARLINK-1185,45087,53.1596,0.0002615,15.43536494,433.89987863961505,437.46350581565,1 45087U 20006AV  26136.89981963  .00045929  00000+0  10108-2 0  9993,2 45087  53.1596 281.3024 0002615 295.1032  64.9703 15.43536494347592
STARLINK-1183,45088,53.1578,0.0001658,15.33076008,465.50639102252353,467.7761194919676,1 45088U 20006AW  26136.90405207  .00026568  00000+0  82848-3 0  9997,2 45088  53.1578 285.3252 0001658 302.5316  57.5526 15.33076008347538
STARLINK-1152,45096,53.0354,0.0002838,15.46275535,425.70126418031214,429.56421908566244,1 45096U 20006BE  26136.56281794  .00032008  00000+0  64550-3 0  9997,2 45096  53.0354 244.3308 0002838  11.3160 348.7909 15.46275535348067
STARLINK-1184,45098,53.0516,0.0002807,15.13315867,524.1581665570911,528.0342030670445,1 45098U 20006BG  26136.82065241  .00013181  00000+0  74686-3 0  9997,2 45098  53.0516 296.9442 0002807 353.4934   6.6021 15.13315867347348
STARLINK-1193,45100,53.0485,0.0003457,15.65698567,368.89718163010275,373.56369427670415,1 45100U 20006BJ  26136.76472011  .00044763  00000+0  43803-3 0  9998,2 45100  53.0485 258.2496 0003457 243.0423 117.0239 15.65698567347881
STARLINK-1143,45179,53.0395,0.000117,15.81288091,326.01253248630655,327.581487044592,1 45179U 20012B   26136.92004393  .00150510  00000+0  73851-3 0  9997,2 45179  53.0395 351.6184 0001170 292.5032  67.5866 15.81288091346658
STARLINK-1202,45183,53.1575,0.0003128,15.32863187,465.1335433311442,469.4160329458027,1 45183U 20012F   26136.84600916  .00021178  00000+0  66759-3 0  9992,2 45183  53.1575  82.3238 0003128  83.9059 276.2300 15.32863187345391
STARLINK-1216,45185,53.1573,0.0003265,15.33126537,464.256089325203,468.72563131799234,1 45185U 20012H   26136.82916915  .00016721  00000+0  52550-3 0  9993,2 45185  53.1573  82.3017 0003265  89.0302 271.1074 15.33126537345334
STARLINK-1225,45187,53.1577,0.0003123,15.33054478,464.56769557555344,468.84298410101655,1 45187U 20012K   26136.89237208  .00015712  00000+0  49565-3 0  9994,2 45187  53.1577  82.4634 0003123  79.9056 280.2298 15.33054478345381
STARLINK-1230,45189,53.1563,0.0003587,15.3299803,464.41806061951775,469.3286710559705,1 45189U 20012M   26136.57636997  .00022301  00000+0  69931-3 0  9990,2 45189  53.1563  83.9965 0003587  85.2523 274.8888 15.32998030342565
